GLOBALSTAR M001 [-]     
1 25162U 98008A   23292.73515591 -.00000068  00000+0  21998-3 0  9991
2 25162  52.0028 298.2869 0001850  54.1775 117.6018 12.38168718168589
GLOBALSTAR M004 [-]     
1 25163U 98008B   23292.80595047 -.00000099  00000+0  26923-4 0  9992
2 25163  51.9974 103.9967 0003471  38.8934 333.9295 12.63340614185041
GLOBALSTAR M002 [-]     
1 25164U 98008C   23292.80164494 -.00000049  00000+0  54182-3 0  9993
2 25164  52.0027 320.5984 0001517 109.3200 250.7784 11.61496576113606
GLOBALSTAR M003 [-]     
1 25165U 98008D   23292.74791291  .00000059  00000+0  15899-2 0  9999
2 25165  51.9777  48.2291 0008450 150.6108 357.6946 12.11945997159688
GLOBALSTAR M014 [-]     
1 25306U 98023A   23292.92772323 -.00000044  00000+0  62531-3 0  9999
2 25306  51.9827 256.2471 0001079 353.8769  19.2570 11.65461249120483
GLOBALSTAR M006 [-]     
1 25307U 98023B   23292.91684696 -.00000035  00000+0  83228-3 0  9990
2 25307  51.9929 286.0907 0003718  95.2904 330.5962 11.58155047146583
GLOBALSTAR M015 [-]     
1 25308U 98023C   23292.90686443  .00000024  00000+0  22354-2 0  9991
2 25308  51.9856 356.8084 0012732  79.4773  91.8197 11.48854426124397
GLOBALSTAR M008 [-]     
1 25309U 98023D   23292.89978567 -.00000056  00000+0  31587-3 0  9996
2 25309  51.9951 155.7741 0002559 358.5264  14.5502 12.36030223162878
